{
  "type": "FeatureCollection",
  "features": [
    {
      "type": "Feature",
      "properties": {
        "norad_id": 30436,
        "name": "FENGYUN 1C DEB",
        "group": "fengyun-1c-debris",
        "lat": -19.058430246089657,
        "lon": -102.74753219243485,
        "alt_km": 847.2672328228018,
        "timestamp": "2025-12-26T22:28:06.060682+00:00",
        "meta_object_name": "FENGYUN 1C DEB",
        "meta_object_id": "1999-025AEX",
        "meta_epoch": "2025-12-26T15:56:45.405024",
        "meta_mean_motion": 14.22412022,
        "meta_eccentricity": 0.00984824,
        "meta_inclination": 98.4267,
        "meta_ra_of_asc_node": 254.0571,
        "meta_arg_of_pericenter": 92.8352,
        "meta_mean_anomaly": 298.2189,
        "meta_ephemeris_type": 0,
        "meta_classification_type": "U",
        "meta_norad_cat_id": 30436,
        "meta_element_set_no": 999,
        "meta_rev_at_epoch": 96635,
        "meta_bstar": 0.002114183,
        "meta_mean_motion_dot": 4.91e-05,
        "meta_mean_motion_ddot": 0,
        "tle_line1": "1 30436U 99025AEX 25360.66441441  .00004910  00000+0  21142-2 0  9992",
        "tle_line2": "2 30436  98.4267 254.0571 0098482  92.8352 298.2189 14.22412022966356"
      },
      "geometry": {
        "type": "Point",
        "coordinates": [
          -102.74753219243485,
          -19.058430246089657
        ]
      }
    },
    {
      "type": "Feature",
      "properties": {
        "norad_id": 30437,
        "name": "FENGYUN 1C DEB",
        "group": "fengyun-1c-debris",
        "lat": -14.870651426881595,
        "lon": -159.92292904283707,
        "alt_km": 624.8700405978198,
        "timestamp": "2025-12-26T22:28:06.060693+00:00",
        "meta_object_name": "FENGYUN 1C DEB",
        "meta_object_id": "1999-025AEY",
        "meta_epoch": "2025-12-26T14:05:37.752000",
        "meta_mean_motion": 14.8860203,
        "meta_eccentricity": 0.00351733,
        "meta_inclination": 98.9215,
        "meta_ra_of_asc_node": 22.0751,
        "meta_arg_of_pericenter": 59.1165,
        "meta_mean_anomaly": 66.6992,
        "meta_ephemeris_type": 0,
        "meta_classification_type": "U",
        "meta_norad_cat_id": 30437,
        "meta_element_set_no": 999,
        "meta_rev_at_epoch": 99393,
        "meta_bstar": 0.0022577721,
        "meta_mean_motion_dot": 0.00021263,
        "meta_mean_motion_ddot": 0,
        "tle_line1": "1 30437U 99025AEY 25360.58724250  .00021263  00000+0  22578-2 0  9990",
        "tle_line2": "2 30437  98.9215  22.0751 0035173  59.1165  66.6992 14.88602030993939"
      },
      "geometry": {
        "type": "Point",
        "coordinates": [
          -159.92292904283707,
          -14.870651426881595
        ]
      }
    },
    {
      "type": "Feature",
      "properties": {
        "norad_id": 30438,
        "name": "FENGYUN 1C DEB",
        "group": "fengyun-1c-debris",
        "lat": 43.16043376356908,
        "lon": -154.52234090328625,
        "alt_km": 821.0264790051942,
        "timestamp": "2025-12-26T22:28:06.060703+00:00",
        "meta_object_name": "FENGYUN 1C DEB",
        "meta_object_id": "1999-025AEZ",
        "meta_epoch": "2025-12-25T00:58:15.685248",
        "meta_mean_motion": 13.92140653,
        "meta_eccentricity": 0.01348772,
        "meta_inclination": 98.7499,
        "meta_ra_of_asc_node": 15.3837,
        "meta_arg_of_pericenter": 153.1315,
        "meta_mean_anomaly": 207.6915,
        "meta_ephemeris_type": 0,
        "meta_classification_type": "U",
        "meta_norad_cat_id": 30438,
        "meta_element_set_no": 999,
        "meta_rev_at_epoch": 95477,
        "meta_bstar": 0.001231799,
        "meta_mean_motion_dot": 1.658e-05,
        "meta_mean_motion_ddot": 0,
        "tle_line1": "1 30438U 99025AEZ 25359.04045932  .00001658  00000+0  12318-2 0  9990",
        "tle_line2": "2 30438  98.7499  15.3837 0134877 153.1315 207.6915 13.92140653954778"
      },
      "geometry": {
        "type": "Point",
        "coordinates": [
          -154.52234090328625,
          43.16043376356908
        ]
      }
    },
    {
      "type": "Feature",
      "properties": {
        "norad_id": 30439,
        "name": "FENGYUN 1C DEB",
        "group": "fengyun-1c-debris",
        "lat": -17.93016667191764,
        "lon": -170.62215917128918,
        "alt_km": 871.9250396707321,
        "timestamp": "2025-12-26T22:28:06.060714+00:00",
        "meta_object_name": "FENGYUN 1C DEB",
        "meta_object_id": "1999-025AFA",
        "meta_epoch": "2025-12-26T12:02:03.253056",
        "meta_mean_motion": 14.08863263,
        "meta_eccentricity": 0.0038262,
        "meta_inclination": 98.7499,
        "meta_ra_of_asc_node": 11.8123,
        "meta_arg_of_pericenter": 297.2555,
        "meta_mean_anomaly": 217.4047,
        "meta_ephemeris_type": 0,
        "meta_classification_type": "U",
        "meta_norad_cat_id": 30439,
        "meta_element_set_no": 999,
        "meta_rev_at_epoch": 96985,
        "meta_bstar": 0.00053477152,
        "meta_mean_motion_dot": 8.87e-06,
        "meta_mean_motion_ddot": 0,
        "tle_line1": "1 30439U 99025AFA 25360.50142654  .00000887  00000+0  53477-3 0  9998",
        "tle_line2": "2 30439  98.7499  11.8123 0038262 297.2555 217.4047 14.08863263969852"
      },
      "geometry": {
        "type": "Point",
        "coordinates": [
          -170.62215917128918,
          -17.93016667191764
        ]
      }
    },
    {
      "type": "Feature",
      "properties": {
        "norad_id": 30441,
        "name": "FENGYUN 1C DEB",
        "group": "fengyun-1c-debris",
        "lat": 55.24011480141546,
        "lon": 76.36161725297607,
        "alt_km": 1096.651832195087,
        "timestamp": "2025-12-26T22:28:06.060724+00:00",
        "meta_object_name": "FENGYUN 1C DEB",
        "meta_object_id": "1999-025AFC",
        "meta_epoch": "2025-12-26T11:43:42.344256",
        "meta_mean_motion": 13.77696667,
        "meta_eccentricity": 0.01844554,
        "meta_inclination": 99.1338,
        "meta_ra_of_asc_node": 89.3353,
        "meta_arg_of_pericenter": 221.1986,
        "meta_mean_anomaly": 137.5121,
        "meta_ephemeris_type": 0,
        "meta_classification_type": "U",
        "meta_norad_cat_id": 30441,
        "meta_element_set_no": 999,
        "meta_rev_at_epoch": 95059,
        "meta_bstar": 0.00061472595,
        "meta_mean_motion_dot": 6.53e-06,
        "meta_mean_motion_ddot": 0,
        "tle_line1": "1 30441U 99025AFC 25360.48868454  .00000653  00000+0  61473-3 0  9997",
        "tle_line2": "2 30441  99.1338  89.3353 0184455 221.1986 137.5121 13.77696667950590"
      },
      "geometry": {
        "type": "Point",
        "coordinates": [
          76.36161725297607,
          55.24011480141546
        ]
      }
    },
    {
      "type": "Feature",
      "properties": {
        "norad_id": 30442,
        "name": "FENGYUN 1C DEB",
        "group": "fengyun-1c-debris",
        "lat": -7.658080951107383,
        "lon": -86.44022663785218,
        "alt_km": 778.6024672349695,
        "timestamp": "2025-12-26T22:28:06.060734+00:00",
        "meta_object_name": "FENGYUN 1C DEB",
        "meta_object_id": "1999-025AFD",
        "meta_epoch": "2025-12-26T04:46:48.625824",
        "meta_mean_motion": 14.28746883,
        "meta_eccentricity": 0.00559881,
        "meta_inclination": 98.8657,
        "meta_ra_of_asc_node": 94.0135,
        "meta_arg_of_pericenter": 248.27,
        "meta_mean_anomaly": 111.2516,
        "meta_ephemeris_type": 0,
        "meta_classification_type": "U",
        "meta_norad_cat_id": 30442,
        "meta_element_set_no": 999,
        "meta_rev_at_epoch": 97354,
        "meta_bstar": 0.002282655,
        "meta_mean_motion_dot": 5.801e-05,
        "meta_mean_motion_ddot": 0,
        "tle_line1": "1 30442U 99025AFD 25360.19917391  .00005801  00000+0  22827-2 0  9990",
        "tle_line2": "2 30442  98.8657  94.0135 0055988 248.2700 111.2516 14.28746883973544"
      },
      "geometry": {
        "type": "Point",
        "coordinates": [
          -86.44022663785218,
          -7.658080951107383
        ]
      }
    },
    {
      "type": "Feature",
      "properties": {
        "norad_id": 30443,
        "name": "FENGYUN 1C DEB",
        "group": "fengyun-1c-debris",
        "lat": 51.61498719632329,
        "lon": -62.895576802739846,
        "alt_km": 771.4343932498314,
        "timestamp": "2025-12-26T22:28:06.060745+00:00",
        "meta_object_name": "FENGYUN 1C DEB",
        "meta_object_id": "1999-025AFE",
        "meta_epoch": "2025-12-25T19:29:12.989760",
        "meta_mean_motion": 14.36966617,
        "meta_eccentricity": 0.00265438,
        "meta_inclination": 98.8498,
        "meta_ra_of_asc_node": 307.2915,
        "meta_arg_of_pericenter": 301.5556,
        "meta_mean_anomaly": 58.3038,
        "meta_ephemeris_type": 0,
        "meta_classification_type": "U",
        "meta_norad_cat_id": 30443,
        "meta_element_set_no": 999,
        "meta_rev_at_epoch": 97621,
        "meta_bstar": 0.0024847466,
        "meta_mean_motion_dot": 7.351e-05,
        "meta_mean_motion_ddot": 0,
        "tle_line1": "1 30443U 99025AFE 25359.81195590  .00007351  00000+0  24847-2 0  9993",
        "tle_line2": "2 30443  98.8498 307.2915 0026543 301.5556  58.3038 14.36966617976215"
      },
      "geometry": {
        "type": "Point",
        "coordinates": [
          -62.895576802739846,
          51.61498719632329
        ]
      }
    }
  ]
}